CCSDS_OMM_VERS = 2.0
CREATION_DATE  = 
ORIGINATOR     = 

OBJECT_NAME    = COSMOS 1743
OBJECT_ID      = 1986-034A
CENTER_NAME    = EARTH
REF_FRAME      = TEME
TIME_SYSTEM    = UTC
MEAN_ELEMENT_THEORY = SGP/SGP4

EPOCH          = 2025-11-02T10:54:19.867104
MEAN_MOTION    = 15.49374407
ECCENTRICITY   = .0008732
INCLINATION    = 82.5390
RA_OF_ASC_NODE = 206.3394
ARG_OF_PERICENTER = 48.7401
MEAN_ANOMALY   = 311.4600

EPHEMERIS_TYPE = 0
CLASSIFICATION_TYPE = U
NORAD_CAT_ID   = 16719
ELEMENT_SET_NO = 999
REV_AT_EPOCH   = 16049
BSTAR          = .50274E-3
MEAN_MOTION_DOT = .27683E-3
MEAN_MOTION_DDOT = 0

CCSDS_OMM_VERS = 2.0
CREATION_DATE  = 
ORIGINATOR     = 

OBJECT_NAME    = SL-14 R/B
OBJECT_ID      = 1986-046B
CENTER_NAME    = EARTH
REF_FRAME      = TEME
TIME_SYSTEM    = UTC
MEAN_ELEMENT_THEORY = SGP/SGP4

EPOCH          = 2025-11-02T10:22:52.675968
MEAN_MOTION    = 14.85423740
ECCENTRICITY   = .0021726
INCLINATION    = 82.4842
RA_OF_ASC_NODE = 200.3739
ARG_OF_PERICENTER = 290.3601
MEAN_ANOMALY   = 69.5280

EPHEMERIS_TYPE = 0
CLASSIFICATION_TYPE = U
NORAD_CAT_ID   = 16792
ELEMENT_SET_NO = 999
REV_AT_EPOCH   = 10751
BSTAR          = .69266E-4
MEAN_MOTION_DOT = .623E-5
MEAN_MOTION_DDOT = 0

CCSDS_OMM_VERS = 2.0
CREATION_DATE  = 
ORIGINATOR     = 

OBJECT_NAME    = SL-14 R/B
OBJECT_ID      = 1986-055B
CENTER_NAME    = EARTH
REF_FRAME      = TEME
TIME_SYSTEM    = UTC
MEAN_ELEMENT_THEORY = SGP/SGP4

EPOCH          = 2025-11-02T09:01:10.474752
MEAN_MOTION    = 14.85461362
ECCENTRICITY   = .0020042
INCLINATION    = 82.5203
RA_OF_ASC_NODE = 246.2950
ARG_OF_PERICENTER = 37.3242
MEAN_ANOMALY   = 83.5046

EPHEMERIS_TYPE = 0
CLASSIFICATION_TYPE = U
NORAD_CAT_ID   = 16882
ELEMENT_SET_NO = 999
REV_AT_EPOCH   = 10046
BSTAR          = .84973E-4
MEAN_MOTION_DOT = .759E-5
MEAN_MOTION_DDOT = 0

CCSDS_OMM_VERS = 2.0
CREATION_DATE  = 
ORIGINATOR     = 

OBJECT_NAME    = AJISAI (EGS)
OBJECT_ID      = 1986-061A
CENTER_NAME    = EARTH
REF_FRAME      = TEME
TIME_SYSTEM    = UTC
MEAN_ELEMENT_THEORY = SGP/SGP4

EPOCH          = 2025-11-02T12:03:26.292096
MEAN_MOTION    = 12.44514119
ECCENTRICITY   = .001114
INCLINATION    = 50.0064
RA_OF_ASC_NODE = 124.4444
ARG_OF_PERICENTER = 324.3032
MEAN_ANOMALY   = 74.4174

EPHEMERIS_TYPE = 0
CLASSIFICATION_TYPE = U
NORAD_CAT_ID   = 16908
ELEMENT_SET_NO = 999
REV_AT_EPOCH   = 45216
BSTAR          = .13666E-3
MEAN_MOTION_DOT = -.78E-6
MEAN_MOTION_DDOT = 0

CCSDS_OMM_VERS = 2.0
CREATION_DATE  = 
ORIGINATOR     = 

OBJECT_NAME    = COSMOS 1812
OBJECT_ID      = 1987-003A
CENTER_NAME    = EARTH
REF_FRAME      = TEME
TIME_SYSTEM    = UTC
MEAN_ELEMENT_THEORY = SGP/SGP4

EPOCH          = 2025-11-02T11:33:22.274784
MEAN_MOTION    = 15.67655791
ECCENTRICITY   = .000365
INCLINATION    = 82.4904
RA_OF_ASC_NODE = 335.3259
ARG_OF_PERICENTER = 168.2230
MEAN_ANOMALY   = 191.9116

EPHEMERIS_TYPE = 0
CLASSIFICATION_TYPE = U
NORAD_CAT_ID   = 17295
ELEMENT_SET_NO = 999
REV_AT_EPOCH   = 12433
BSTAR          = .55405E-3
MEAN_MOTION_DOT = .60769E-3
MEAN_MOTION_DDOT = 0

CCSDS_OMM_VERS = 2.0
CREATION_DATE  = 
ORIGINATOR     = 

OBJECT_NAME    = SL-14 R/B
OBJECT_ID      = 1987-024B
CENTER_NAME    = EARTH
REF_FRAME      = TEME
TIME_SYSTEM    = UTC
MEAN_ELEMENT_THEORY = SGP/SGP4

EPOCH          = 2025-11-02T10:40:30.700128
MEAN_MOTION    = 14.85962140
ECCENTRICITY   = .001747
INCLINATION    = 82.5306
RA_OF_ASC_NODE = 212.2997
ARG_OF_PERICENTER = 326.7767
MEAN_ANOMALY   = 33.2351

EPHEMERIS_TYPE = 0
CLASSIFICATION_TYPE = U
NORAD_CAT_ID   = 17567
ELEMENT_SET_NO = 999
REV_AT_EPOCH   = 6923
BSTAR          = .73571E-4
MEAN_MOTION_DOT = .668E-5
MEAN_MOTION_DDOT = 0

CCSDS_OMM_VERS = 2.0
CREATION_DATE  = 
ORIGINATOR     = 

OBJECT_NAME    = COSMOS 1833
OBJECT_ID      = 1987-027A
CENTER_NAME    = EARTH
REF_FRAME      = TEME
TIME_SYSTEM    = UTC
MEAN_ELEMENT_THEORY = SGP/SGP4

EPOCH          = 2025-11-02T05:24:17.786304
MEAN_MOTION    = 14.13024192
ECCENTRICITY   = .0020671
INCLINATION    = 70.9161
RA_OF_ASC_NODE = 233.9425
ARG_OF_PERICENTER = 29.2030
MEAN_ANOMALY   = 331.0242

EPHEMERIS_TYPE = 0
CLASSIFICATION_TYPE = U
NORAD_CAT_ID   = 17589
ELEMENT_SET_NO = 999
REV_AT_EPOCH   = 99230
BSTAR          = -.14171E-3
MEAN_MOTION_DOT = -.313E-5
MEAN_MOTION_DDOT = 0

CCSDS_OMM_VERS = 2.0
CREATION_DATE  = 
ORIGINATOR     = 

OBJECT_NAME    = SL-16 R/B
OBJECT_ID      = 1987-027B
CENTER_NAME    = EARTH
REF_FRAME      = TEME
TIME_SYSTEM    = UTC
MEAN_ELEMENT_THEORY = SGP/SGP4

EPOCH          = 2025-11-02T08:34:10.541280
MEAN_MOTION    = 14.17142644
ECCENTRICITY   = .0006816
INCLINATION    = 71.0018
RA_OF_ASC_NODE = 184.8106
ARG_OF_PERICENTER = 302.2096
MEAN_ANOMALY   = 57.8366

EPHEMERIS_TYPE = 0
CLASSIFICATION_TYPE = U
NORAD_CAT_ID   = 17590
ELEMENT_SET_NO = 999
REV_AT_EPOCH   = 99734
BSTAR          = .10452E-3
MEAN_MOTION_DOT = .163E-5
MEAN_MOTION_DDOT = 0

CCSDS_OMM_VERS = 2.0
CREATION_DATE  = 
ORIGINATOR     = 

OBJECT_NAME    = SL-14 R/B
OBJECT_ID      = 1987-038B
CENTER_NAME    = EARTH
REF_FRAME      = TEME
TIME_SYSTEM    = UTC
MEAN_ELEMENT_THEORY = SGP/SGP4

EPOCH          = 2025-11-02T08:59:06.172800
MEAN_MOTION    = 14.85196750
ECCENTRICITY   = .0018329
INCLINATION    = 82.5025
RA_OF_ASC_NODE = 56.7101
ARG_OF_PERICENTER = 222.2141
MEAN_ANOMALY   = 137.7665

EPHEMERIS_TYPE = 0
CLASSIFICATION_TYPE = U
NORAD_CAT_ID   = 17912
ELEMENT_SET_NO = 999
REV_AT_EPOCH   = 6033
BSTAR          = .82854E-4
MEAN_MOTION_DOT = .735E-5
MEAN_MOTION_DDOT = 0

CCSDS_OMM_VERS = 2.0
CREATION_DATE  = 
ORIGINATOR     = 

OBJECT_NAME    = COSMOS 1844
OBJECT_ID      = 1987-041A
CENTER_NAME    = EARTH
REF_FRAME      = TEME
TIME_SYSTEM    = UTC
MEAN_ELEMENT_THEORY = SGP/SGP4

EPOCH          = 2025-11-02T09:29:08.088000
MEAN_MOTION    = 14.14510400
ECCENTRICITY   = .0032324
INCLINATION    = 70.8974
RA_OF_ASC_NODE = 302.6647
ARG_OF_PERICENTER = 216.7988
MEAN_ANOMALY   = 143.0915

EPHEMERIS_TYPE = 0
CLASSIFICATION_TYPE = U
NORAD_CAT_ID   = 17973
ELEMENT_SET_NO = 999
REV_AT_EPOCH   = 98558
BSTAR          = .21749E-3
MEAN_MOTION_DOT = .371E-5
MEAN_MOTION_DDOT = 0

CCSDS_OMM_VERS = 2.0
CREATION_DATE  = 
ORIGINATOR     = 

OBJECT_NAME    = SL-14 R/B
OBJECT_ID      = 1987-055B
CENTER_NAME    = EARTH
REF_FRAME      = TEME
TIME_SYSTEM    = UTC
MEAN_ELEMENT_THEORY = SGP/SGP4

EPOCH          = 2025-11-01T11:56:39.980544
MEAN_MOTION    = 14.85453136
ECCENTRICITY   = .00222039
INCLINATION    = 82.4961
RA_OF_ASC_NODE = 109.8555
ARG_OF_PERICENTER = 78.2998
MEAN_ANOMALY   = 282.0707

EPHEMERIS_TYPE = 0
CLASSIFICATION_TYPE = U
NORAD_CAT_ID   = 18153
ELEMENT_SET_NO = 999
REV_AT_EPOCH   = 5090
BSTAR          = .80258126E-4
MEAN_MOTION_DOT = .719E-5
MEAN_MOTION_DDOT = 0

CCSDS_OMM_VERS = 2.0
CREATION_DATE  = 
ORIGINATOR     = 

OBJECT_NAME    = COSMOS 1867
OBJECT_ID      = 1987-060A
CENTER_NAME    = EARTH
REF_FRAME      = TEME
TIME_SYSTEM    = UTC
MEAN_ELEMENT_THEORY = SGP/SGP4

EPOCH          = 2025-11-02T08:41:16.721376
MEAN_MOTION    = 14.31475770
ECCENTRICITY   = .0013756
INCLINATION    = 65.0102
RA_OF_ASC_NODE = 303.2759
ARG_OF_PERICENTER = 267.1050
MEAN_ANOMALY   = 92.8460

EPHEMERIS_TYPE = 0
CLASSIFICATION_TYPE = U
NORAD_CAT_ID   = 18187
ELEMENT_SET_NO = 999
REV_AT_EPOCH   = 171
BSTAR          = .43137E-4
MEAN_MOTION_DOT = .15E-6
MEAN_MOTION_DDOT = 0

