COSMOS 1743             
1 16719U 86034A   25306.45439661  .00027683  00000+0  50274-3 0  9995
2 16719  82.5390 206.3394 0008732  48.7401 311.4600 15.49374407160493
SL-14 R/B               
1 16792U 86046B   25306.43255412  .00000623  00000+0  69266-4 0  9994
2 16792  82.4842 200.3739 0021726 290.3601  69.5280 14.85423740107510
SL-14 R/B               
1 16882U 86055B   25306.37581568  .00000759  00000+0  84973-4 0  9993
2 16882  82.5203 246.2950 0020042  37.3242  83.5046 14.85461362100461
AJISAI (EGS)            
1 16908U 86061A   25306.50238764 -.00000078  00000+0  13666-3 0  9996
2 16908  50.0064 124.4444 0011140 324.3032  74.4174 12.44514119452165
COSMOS 1812             
1 17295U 87003A   25306.48150781  .00060769  00000+0  55405-3 0  9991
2 17295  82.4904 335.3259 0003650 168.2230 191.9116 15.67655791124332
SL-14 R/B               
1 17567U 87024B   25306.44479977  .00000668  00000+0  73571-4 0  9990
2 17567  82.5306 212.2997 0017470 326.7767  33.2351 14.85962140 69238
COSMOS 1833             
1 17589U 87027A   25306.22520586 -.00000313  00000+0 -14171-3 0  9995
2 17589  70.9161 233.9425 0020671  29.2030 331.0242 14.13024192992301
SL-16 R/B               
1 17590U 87027B   25306.35706645  .00000163  00000+0  10452-3 0  9992
2 17590  71.0018 184.8106 0006816 302.2096  57.8366 14.17142644997343
SL-14 R/B               
1 17912U 87038B   25306.37437700  .00000735  00000+0  82854-4 0  9998
2 17912  82.5025  56.7101 0018329 222.2141 137.7665 14.85196750 60334
COSMOS 1844             
1 17973U 87041A   25306.39523250  .00000371  00000+0  21749-3 0  9998
2 17973  70.8974 302.6647 0032324 216.7988 143.0915 14.14510400985585
SL-14 R/B               
1 18153U 87055B   25305.49768496  .00000719  00000+0  80258-4 0  9994
2 18153  82.4961 109.8555 0022203  78.2998 282.0707 14.85453136 50905
COSMOS 1867             
1 18187U 87060A   25306.36199909  .00000015  00000+0  43137-4 0  9995
2 18187  65.0102 303.2759 0013756 267.1050  92.8460 14.31475770  1710
